{
  "type": "FeatureCollection",
  "features": [
    {
      "type": "Feature",
      "properties": {
        "ulpin": "CHD-SEC-0017-0201",
        "type": "parcel"
      },
      "geometry": {
        "type": "Polygon",
        "coordinates": [
          [
            [
              76.774817,
              30.732139
            ],
            [
              76.777632,
              30.731902
            ],
            [
              76.777498,
              30.73398
            ],
            [
              76.776005,
              30.734128
            ],
            [
              76.775076,
              30.734115
            ],
            [
              76.775065,
              30.733047
            ],
            [
              76.774817,
              30.732139
            ]
          ]
        ]
      }
    },
    {
      "type": "Feature",
      "properties": {
        "ulpin": "CHD-SEC-0017-0202",
        "type": "parcel"
      },
      "geometry": {
        "type": "Polygon",
        "coordinates": [
          [
            [
              76.778098,
              30.731907
            ],
            [
              76.780651,
              30.732036
            ],
            [
              76.780301,
              30.733927
            ],
            [
              76.778667,
              30.733874
            ],
            [
              76.777761,
              30.73406
            ],
            [
              76.778069,
              30.732987
            ],
            [
              76.778098,
              30.731907
            ]
          ]
        ]
      }
    },
    {
      "type": "Feature",
      "properties": {
        "ulpin": "CHD-SEC-0017-0203",
        "type": "parcel"
      },
      "geometry": {
        "type": "Polygon",
        "coordinates": [
          [
            [
              76.784176,
              30.737021
            ],
            [
              76.785938,
              30.737071
            ],
            [
              76.786087,
              30.737879
            ],
            [
              76.786104,
              30.739181
            ],
            [
              76.78502,
              30.738961
            ],
            [
              76.784171,
              30.738966
            ],
            [
              76.784176,
              30.737021
            ]
          ]
        ]
      }
    },
    {
      "type": "Feature",
      "properties": {
        "ulpin": "CHD-SEC-0017-0204",
        "type": "parcel"
      },
      "geometry": {
        "type": "Polygon",
        "coordinates": [
          [
            [
              76.775218,
              30.734469
            ],
            [
              76.776421,
              30.734661
            ],
            [
              76.777665,
              30.734568
            ],
            [
              76.777463,
              30.735485
            ],
            [
              76.777402,
              30.736535
            ],
            [
              76.775191,
              30.736638
            ],
            [
              76.775218,
              30.734469
            ]
          ]
        ]
      }
    },
    {
      "type": "Feature",
      "properties": {
        "ulpin": "CHD-SEC-0017-0205",
        "type": "parcel"
      },
      "geometry": {
        "type": "Polygon",
        "coordinates": [
          [
            [
              76.777934,
              30.734653
            ],
            [
              76.779474,
              30.7346
            ],
            [
              76.780638,
              30.734595
            ],
            [
              76.780293,
              30.736566
            ],
            [
              76.779208,
              30.736269
            ],
            [
              76.777804,
              30.736365
            ],
            [
              76.777934,
              30.734653
            ]
          ]
        ]
      }
    },
    {
      "type": "Feature",
      "properties": {
        "ulpin": "CHD-SEC-0017-0206",
        "type": "parcel"
      },
      "geometry": {
        "type": "Polygon",
        "coordinates": [
          [
            [
              76.772057,
              30.732031
            ],
            [
              76.77366,
              30.731974
            ],
            [
              76.774574,
              30.731867
            ],
            [
              76.774363,
              30.733805
            ],
            [
              76.773158,
              30.734121
            ],
            [
              76.77185,
              30.734168
            ],
            [
              76.772057,
              30.732031
            ]
          ]
        ]
      }
    },
    {
      "type": "Feature",
      "properties": {
        "ulpin": "CHD-SEC-0017-0207",
        "type": "parcel"
      },
      "geometry": {
        "type": "Polygon",
        "coordinates": [
          [
            [
              76.772024,
              30.734683
            ],
            [
              76.773124,
              30.734576
            ],
            [
              76.774253,
              30.734613
            ],
            [
              76.77466,
              30.736654
            ],
            [
              76.773352,
              30.73637
            ],
            [
              76.77212,
              30.736624
            ],
            [
              76.772024,
              30.734683
            ]
          ]
        ]
      }
    },
    {
      "type": "Feature",
      "properties": {
        "ulpin": "CHD-SEC-0017-0208",
        "type": "parcel"
      },
      "geometry": {
        "type": "Polygon",
        "coordinates": [
          [
            [
              76.780965,
              30.732125
            ],
            [
              76.781971,
              30.731805
            ],
            [
              76.782966,
              30.731801
            ],
            [
              76.783016,
              30.734115
            ],
            [
              76.780932,
              30.73404
            ],
            [
              76.780968,
              30.733318
            ],
            [
              76.780965,
              30.732125
            ]
          ]
        ]
      }
    },
    {
      "type": "Feature",
      "properties": {
        "zone_id": "ECO-ZONE-CHD-01",
        "name": "Sample protected zone (placeholder)",
        "type": "protected_zone"
      },
      "geometry": {
        "type": "Polygon",
        "coordinates": [
          [
            [
              76.782126,
              30.742293
            ],
            [
              76.782689,
              30.742331
            ],
            [
              76.78356,
              30.742104
            ],
            [
              76.784555,
              30.741762
            ],
            [
              76.78535,
              30.740306
            ],
            [
              76.786393,
              30.740054
            ],
            [
              76.787067,
              30.740002
            ],
            [
              76.787912,
              30.742356
            ],
            [
              76.788056,
              30.736445
            ],
            [
              76.787069,
              30.736608
            ],
            [
              76.786284,
              30.734843
            ],
            [
              76.785361,
              30.73553
            ],
            [
              76.784678,
              30.735275
            ],
            [
              76.783626,
              30.73669
            ],
            [
              76.783029,
              30.737397
            ],
            [
              76.781975,
              30.737427
            ],
            [
              76.782126,
              30.742293
            ]
          ]
        ]
      }
    }
  ]
}