{
  "type": "FeatureCollection",
  "features": [
    {
      "type": "Feature",
      "properties": {
        "ulpin": "TN-CHN-0042-1187",
        "type": "parcel"
      },
      "geometry": {
        "type": "Polygon",
        "coordinates": [
          [
            [
              80.27,
              13.0833437
            ],
            [
              80.2701383,
              13.0833437
            ],
            [
              80.2701383,
              13.0836162
            ],
            [
              80.27,
              13.0836162
            ],
            [
              80.27,
              13.0833437
            ]
          ]
        ]
      }
    },
    {
      "type": "Feature",
      "properties": {
        "ulpin": "TN-CHN-0042-1188",
        "type": "parcel"
      },
      "geometry": {
        "type": "Polygon",
        "coordinates": [
          [
            [
              80.2701153,
              13.0833437
            ],
            [
              80.2702628,
              13.0833437
            ],
            [
              80.2702628,
              13.0836376
            ],
            [
              80.2701153,
              13.0836376
            ],
            [
              80.2701153,
              13.0833437
            ]
          ]
        ]
      }
    },
    {
      "type": "Feature",
      "properties": {
        "ulpin": "TN-CHN-0042-1189",
        "type": "parcel"
      },
      "geometry": {
        "type": "Polygon",
        "coordinates": [
          [
            [
              80.271969,
              13.0833437
            ],
            [
              80.2721258,
              13.0833437
            ],
            [
              80.2721258,
              13.0836682
            ],
            [
              80.271969,
              13.0836682
            ],
            [
              80.271969,
              13.0833437
            ]
          ]
        ]
      }
    },
    {
      "type": "Feature",
      "properties": {
        "ulpin": "TN-CHN-0042-1190",
        "type": "parcel"
      },
      "geometry": {
        "type": "Polygon",
        "coordinates": [
          [
            [
              80.2701522,
              13.0830754
            ],
            [
              80.2702628,
              13.0830754
            ],
            [
              80.2702628,
              13.0833617
            ],
            [
              80.2701522,
              13.0833617
            ],
            [
              80.2701522,
              13.0830754
            ]
          ]
        ]
      }
    },
    {
      "type": "Feature",
      "properties": {
        "ulpin": "TN-CHN-0042-1191",
        "type": "parcel"
      },
      "geometry": {
        "type": "Polygon",
        "coordinates": [
          [
            [
              80.2718998,
              13.0830271
            ],
            [
              80.2720289,
              13.0830271
            ],
            [
              80.2720289,
              13.0833437
            ],
            [
              80.2718998,
              13.0833437
            ],
            [
              80.2718998,
              13.0830271
            ]
          ]
        ]
      }
    },
    {
      "type": "Feature",
      "properties": {
        "ulpin": "TN-CHN-0042-1192",
        "type": "parcel"
      },
      "geometry": {
        "type": "Polygon",
        "coordinates": [
          [
            [
              80.2738366,
              13.0830045
            ],
            [
              80.274021,
              13.0830045
            ],
            [
              80.274021,
              13.0833437
            ],
            [
              80.2738366,
              13.0833437
            ],
            [
              80.2738366,
              13.0830045
            ]
          ]
        ]
      }
    },
    {
      "type": "Feature",
      "properties": {
        "ulpin": "TN-CHN-0042-1193",
        "type": "parcel"
      },
      "geometry": {
        "type": "Polygon",
        "coordinates": [
          [
            [
              80.2718445,
              13.0833437
            ],
            [
              80.271969,
              13.0833437
            ],
            [
              80.271969,
              13.0836183
            ],
            [
              80.2718445,
              13.0836183
            ],
            [
              80.2718445,
              13.0833437
            ]
          ]
        ]
      }
    },
    {
      "type": "Feature",
      "properties": {
        "ulpin": "TN-CHN-0042-1194",
        "type": "parcel"
      },
      "geometry": {
        "type": "Polygon",
        "coordinates": [
          [
            [
              80.273689,
              13.0830158
            ],
            [
              80.2738366,
              13.0830158
            ],
            [
              80.2738366,
              13.0833437
            ],
            [
              80.273689,
              13.0833437
            ],
            [
              80.273689,
              13.0830158
            ]
          ]
        ]
      }
    },
    {
      "type": "Feature",
      "properties": {
        "ulpin": "TN-CHN-0042-1195",
        "type": "parcel"
      },
      "geometry": {
        "type": "Polygon",
        "coordinates": [
          [
            [
              80.273689,
              13.0833437
            ],
            [
              80.273855,
              13.0833437
            ],
            [
              80.273855,
              13.0836602
            ],
            [
              80.273689,
              13.0836602
            ],
            [
              80.273689,
              13.0833437
            ]
          ]
        ]
      }
    },
    {
      "type": "Feature",
      "properties": {
        "zone_id": "ECO-ZONE-TN-01",
        "name": "Sample protected zone (placeholder)",
        "type": "protected_zone"
      },
      "geometry": {
        "type": "Polygon",
        "coordinates": [
          [
            [
              80.276567,
              13.08
            ],
            [
              80.276088,
              13.080312
            ],
            [
              80.275795,
              13.080709
            ],
            [
              80.274342,
              13.080673
            ],
            [
              80.273122,
              13.080842
            ],
            [
              80.27204,
              13.080625
            ],
            [
              80.271623,
              13.080297
            ],
            [
              80.27079,
              13.08
            ],
            [
              80.271647,
              13.079706
            ],
            [
              80.271984,
              13.079355
            ],
            [
              80.273259,
              13.079328
            ],
            [
              80.274347,
              13.079321
            ],
            [
              80.275608,
              13.079358
            ],
            [
              80.276892,
              13.079578
            ],
            [
              80.276567,
              13.08
            ]
          ]
        ]
      }
    }
  ]
}
